0 CZ-4C DEB
1 39243U 13046E   13282.87096478 -.00000090  00000-0  00000+0 0   439
2 39243 063.4177 120.4621 0025049 035.6181 324.6511 13.44124822  5111
0 CZ-4C DEB
1 39243U 13046E   13286.88844500 -.00000090  00000-0  00000+0 0   453
2 39243 063.4203 110.1735 0025300 035.2702 324.9992 13.44125570  5654
0 CZ-4C DEB
1 39243U 13046E   13288.89718482 -.00000090  00000-0  00000+0 0   466
2 39243 063.4215 105.0301 0025451 034.9952 325.2742 13.44125920  5925
0 CZ-4C DEB
1 39243U 13046E   13290.90592358 -.00000090  00000-0  00000+0 0   474
2 39243 063.4227 099.8865 0025626 034.6982 325.5712 13.44126357  6192
0 CZ-4C DEB
1 39243U 13046E   13293.21225248 -.00000090  00000-0  00000+0 0   483
2 39243 063.4234 093.9784 0025857 034.4822 325.7878 13.44126829  6506
0 CZ-4C DEB
1 39243U 13046E   13295.51858031 -.00000090  00000-0  00000+0 0   491
2 39243 063.4244 088.0716 0025946 034.1830 326.0860 13.44127302  6818
